[
    {
        "Altitude(m)": 607911.0154844268,
        "Argument of Periapsis(deg)": 0.0,
        "Eccentricity": 0.0,
        "Inclination(deg)": 60.0,
        "Latitude(deg)": -14.29298057487586,
        "Longitude(deg)": -146.55737178697655,
        "Mean Anomaly(deg)": 196.36359999999996,
        "RAAN(deg)": 125.00000000000001,
        "Satellite Name": "Test1 562",
        "Satellite Number": 562,
        "Semi-Major Axis(m)": 6980739.136638005,
        "Time(s)": 0
    },
    {
        "Altitude(m)": 608060.2493686747,
        "Argument of Periapsis(deg)": 0.00010418945913296404,
        "Eccentricity": 0.0,
        "Inclination(deg)": 60.0,
        "Latitude(deg)": -14.826642360448062,
        "Longitude(deg)": -146.2687630522123,
        "Mean Anomaly(deg)": 196.98370614546178,
        "RAAN(deg)": 124.99957995086027,
        "Satellite Name": "Test1 562",
        "Satellite Number": 562,
        "Semi-Major Axis(m)": 6980739.136638005,
        "Time(s)": 10
    }
]